COMMENT,ORIGINATOR,NORAD_CAT_ID,OBJECT_NAME,OBJECT_TYPE,CLASSIFICATION_TYPE,INTLDES,EPOCH,EPOCH_MICROSECONDS,MEAN_MOTION,ECCENTRICITY,INCLINATION,RA_OF_ASC_NODE,ARG_OF_PERICENTER,MEAN_ANOMALY,EPHEMERIS_TYPE,ELEMENT_SET_NO,REV_AT_EPOCH,BSTAR,MEAN_MOTION_DOT,MEAN_MOTION_DDOT,FILE,TLE_LINE0,TLE_LINE1,TLE_LINE2,OBJECT_ID,OBJECT_NUMBER,SEMIMAJOR_AXIS,PERIOD,APOGEE,PERIGEE
"GENERATED VIA SPACETRACK.ORG API","JSPOC","27058","GONETS D1 7","PAYLOAD","U","01058D","2016-01-09 08:55:21","874944","12.6201288","0.0003234","82.535","127.1712","10.1182","349.9972","0","999","64646","8.6615e-06","1.2e-07","0","1978058","0 GONETS D1 7","1 27058U 01058D   16009.37178096  .00000012  00000-0  86615-5 0  9997","2 27058  82.5350 127.1712 0003234  10.1182 349.9972 12.62012880646462","2001-058D","27058","7792.784","114.103","1417.169","1412.129"
"GENERATED VIA SPACETRACK.ORG API","JSPOC","4881","INTELSAT 4-F2","PAYLOAD","U","71006A","2016-01-09 08:55:25","406976","0.98838115","0.0013549","12.7495","322.834","332.8279","260.572","0","999","8395","0","-2e-06","0","1978094","0 INTELSAT 4-F2","1 04881U 71006A   16009.37182184 -.00000200  00000-0  00000+0 0  9997","2 04881  12.7495 322.8340 0013549 332.8279 260.5720  0.98838115 83959","1971-006A","4881","42571.492","1456.927","36251.037","36135.676"
"GENERATED VIA SPACETRACK.ORG API","JSPOC","15702","SL-12 R/B(2)","ROCKET BODY","U","85037F","2016-01-09 08:55:25","406976","2.13321457","0.0031814","64.0926","203.0279","9.3509","344.5371","0","999","23855","0","1.08e-06","0","1978726","0 SL-12 R/B(2)","1 15702U 85037F   16009.37182184 +.00000108 +00000-0 +00000-0 0  9997","2 15702 064.0926 203.0279 0031814 009.3509 344.5371 02.13321457238558","1985-037F","15702","25490.526","675.037","19193.487","19031.296"
"GENERATED VIA SPACETRACK.ORG API","JSPOC","8366","GOES 1 (SMS-C)","PAYLOAD","U","75100A","2016-01-09 08:56:19","912416","1.00257207","0.0005826","12.8025","324.6538","254.7011","255.3284","0","999","14698","0","4.3e-07","0","1978172","0 GOES 1 (SMS-C)","1 08366U 75100A   16009.37245269  .00000043  00000-0  00000+0 0  9996","2 08366  12.8025 324.6538 0005826 254.7011 255.3284  1.00257207146986","1975-100A","8366","42168.819","1436.305","35815.251","35766.116"
"GENERATED VIA SPACETRACK.ORG API","JSPOC","41166","VELOX C1","PAYLOAD","U","15077A","2016-01-09 08:56:44","150208","15.08247559","0.00113","14.9777","36.4921","311.8587","48.0759","0","999","357","0.00010497","2.328e-05","0","1978726","0 VELOX C1","1 41166U 15077A   16009.37273322 +.00002328 +00000-0 +10497-3 0  9992","2 41166 014.9777 036.4921 0011300 311.8587 048.0759 15.08247559003572","2015-077A","41166","6919.691","95.475","549.376","533.737"
"GENERATED VIA SPACETRACK.ORG API","JSPOC","23686","ASTRA 1E","PAYLOAD","U","95055A","2016-01-09 08:57:47","274912","0.98792835","0.0008834","4.4697","63.5778","260.8321","230.6816","0","999","7389","0","-1.86e-06","0","1978104","0 ASTRA 1E","1 23686U 95055A   16009.37346383 -.00000186  00000-0  00000+0 0  9997","2 23686   4.4697  63.5778 0008834 260.8321 230.6816  0.98792835 73892","1995-055A","23686","42584.499","1457.595","36243.983","36168.744"
"GENERATED VIA SPACETRACK.ORG API","JSPOC","25785","ASTRA 1H","PAYLOAD","U","99033A","2016-01-09 08:57:47","274912","1.00268244","0.0003033","2.8073","72.2376","221.0826","261.7386","0","999","6056","0","-2.77e-06","0","1978109","0 ASTRA 1H","1 25785U 99033A   16009.37346383 -.00000277  00000-0  00000+0 0  9990","2 25785   2.8073  72.2376 0003033 221.0826 261.7386  1.00268244 60563","1999-033A","25785","42165.724","1436.147","35800.378","35774.800"
"GENERATED VIA SPACETRACK.ORG API","JSPOC","37807","BREEZE-M R/B","ROCKET BODY","U","11048B","2016-01-09 08:58:09","457248","1.04263701","0.0235552","3.0293","67.5713","350.1347","138.051","0","999","1587","0","-9.3e-07","0","1978726","0 BREEZE-M R/B","1 37807U 11048B   16009.37372057 -.00000093 +00000-0 +00000-0 0  9992","2 37807 003.0293 067.5713 0235552 350.1347 138.0510 01.04263701015871","2011-048B","37807","41081.511","1381.113","35671.059","33735.693"
"GENERATED VIA SPACETRACK.ORG API","JSPOC","41122","BREEZE-M R/B","ROCKET BODY","U","15075B","2016-01-09 08:58:22","900224","1.04652512","0.0281386","0.1672","136.242","4.2932","221.5593","0","999","30","0","-1.17e-06","0","1978523","0 BREEZE-M R/B","1 41122U 15075B   16009.37387616 -.00000117  00000-0  00000+0 0  9994","2 41122   0.1672 136.2420 0281386   4.2932 221.5593  1.04652512   300","2015-075B","41122","40979.696","1375.982","35754.672","33448.450"
"GENERATED VIA SPACETRACK.ORG API","JSPOC","41122","BREEZE-M R/B","ROCKET BODY","U","15075B","2016-01-09 08:58:24","79584","1.04652662","0.0279503","0.1677","136.6994","3.7121","221.6798","0","999","30","0","-1.17e-06","0","1978388","0 BREEZE-M R/B","1 41122U 15075B   16009.37388981 -.00000117  00000-0  00000+0 0  9990","2 41122   0.1677 136.6994 0279503   3.7121 221.6798  1.04652662   301","2015-075B","41122","40979.657","1375.980","35746.915","33456.128"
"GENERATED VIA SPACETRACK.ORG API","JSPOC","41122","BREEZE-M R/B","ROCKET BODY","U","15075B","2016-01-09 08:58:24","79584","1.04652662","0.0279503","0.1677","136.6994","3.7121","221.6798","0","999","31","0","-1.17e-06","0","1978726","0 BREEZE-M R/B","1 41122U 15075B   16009.37388981 -.00000117 +00000-0 +00000-0 0  9991","2 41122 000.1677 136.6994 0279503 003.7121 221.6798 01.04652662000312","2015-075B","41122","40979.657","1375.980","35746.915","33456.128"
"GENERATED VIA SPACETRACK.ORG API","JSPOC","40486","ATLAS 5 CENTAUR R/B","ROCKET BODY","U","15011E","2016-01-09 08:58:29","165952","1.10553209","0.8300104","28.4603","344.1439","95.1584","352.1427","0","999","333","0.0028743","3.82e-06","0","1978073","0 ATLAS 5 CENTAUR R/B","1 40486U 15011E   16009.37394868  .00000382  00000-0  28743-2 0  9993","2 40486  28.4603 344.1439 8300104  95.1584 352.1427  1.10553209  3332","2015-011E","40486","39508.232","1302.540","65922.342","337.853"
"GENERATED VIA SPACETRACK.ORG API","JSPOC","19913","IUS R/B(2)","ROCKET BODY","U","89021D","2016-01-09 08:58:40","976832","1.00619995","0.002274","13.6348","352.0021","101.5657","40.3414","0","999","8729","0","-1.29e-06","0","1978079","0 IUS R/B(2)","1 19913U 89021D   16009.37408538 -.00000129  00000-0  00000+0 0  9999","2 19913  13.6348 352.0021 0022740 101.5657  40.3414  1.00619995 87295","1989-021D","19913","42067.397","1431.127","35784.923","35593.601"
"GENERATED VIA SPACETRACK.ORG API","JSPOC","29709","LAPAN-TUBSAT","PAYLOAD","U","07001A","2016-01-09 08:58:46","337088","14.81887718","0.0013745","97.6449","359.8265","16.7242","343.4435","0","999","48625","3.5021e-05","2.27e-06","0","1978140","0 LAPAN-TUBSAT","1 29709U 07001A   16009.37414742  .00000227  00000-0  35021-4 0  9999","2 29709  97.6449 359.8265 0013745  16.7242 343.4435 14.81887718486252","2007-001A","29709","7001.508","97.173","632.997","613.750"
"GENERATED VIA SPACETRACK.ORG API","JSPOC","28051","IRS P6","PAYLOAD","U","03046A","2016-01-09 08:59:29","658912","14.21647319","0.000469","98.6746","89.4538","58.5014","301.6621","0","999","63471","3.9966e-05","4.4e-07","0","1978052","0 IRS P6","1 28051U 03046A   16009.37464883  .00000044  00000-0  39966-4 0  9993","2 28051  98.6746  89.4538 0004690  58.5014 301.6621 14.21647319634715","2003-046A","28051","7197.924","101.290","823.164","816.413"
"GENERATED VIA SPACETRACK.ORG API","JSPOC","40545","GALILEO 8 (264)","PAYLOAD","U","15017B","2016-01-09 08:59:39","333984","1.70475947","0.0003189","55.2339","86.8263","193.684","166.3532","0","999","488","0","-2.8e-07","0","1978314","0 GALILEO 8 (264)","1 40545U 15017B   16009.37476081 -.00000028  00000-0  00000+0 0  9994","2 40545  55.2339  86.8263 0003189 193.6840 166.3532  1.70475947  4882","2015-017B","40545","29600.094","844.693","23231.399","23212.520"
"GENERATED VIA SPACETRACK.ORG API","JSPOC","9980","SL-6 R/B(2)","ROCKET BODY","U","77032D","2016-01-09 08:59:39","11712","2.30361318","0.7154616","62.4356","147.5403","249.9047","24.8619","0","999","15862","-0.00035956","9.3e-07","0","1978726","0 SL-6 R/B(2)","1  9980U 77032D   16009.37475708 +.00000093 +00000-0 -35956-3 0  9996","2  9980 062.4356 147.5403 7154616 249.9047 024.8619 02.30361318158622","1977-032D","9980","24217.471","625.104","35166.008","512.665"
"GENERATED VIA SPACETRACK.ORG API","JSPOC","23653","COSMOS 2319","PAYLOAD","U","95045A","2016-01-09 09:00:55","767744","1.00367908","0.0008307","13.8896","26.5397","172.1636","335.1896","0","999","7456","0","-2.84e-06","0","1978726","0 COSMOS 2319","1 23653U 95045A   16009.37564546 -.00000284 +00000-0 +00000-0 0  9993","2 23653 013.8896 026.5397 0008307 172.1636 335.1896 01.00367908074563","1995-045A","23653","42137.806","1434.721","35794.675","35724.667"
"GENERATED VIA SPACETRACK.ORG API","JSPOC","41167","KENT RIDGE 1","PAYLOAD","U","15077B","2016-01-09 09:01:30","775296","15.08128932","0.0011633","14.98","36.4438","312.1055","57.3037","0","999","357","5.6699e-05","1.553e-05","0","1978158","0 KENT RIDGE 1","1 41167U 15077B   16009.37605064  .00001553  00000-0  56699-4 0  9999","2 41167  14.9800  36.4438 0011633 312.1055  57.3037 15.08128932  3571","2015-077B","41167","6920.054","95.482","549.969","533.869"
"GENERATED VIA SPACETRACK.ORG API","JSPOC","32712","DELTA 2 R/B(2) (PAM-D)","ROCKET BODY","U","08012B","2016-01-09 09:01:49","324512","9.56794938","0.2991696","39.852","102.794","187.697","166.5208","0","999","17649","0.0012391","0.00216901","4.9656","1978146","0 DELTA 2 R/B(2) (PAM-D)","1 32712U 08012B   16009.37626533  .00216901  49656-6  12391-2 0  9990","2 32712  39.8520 102.7940 2991696 187.6970 166.5208  9.56794938176492","2008-012B","32712","9372.510","150.502","5798.345","190.405"
